[{"OBJECT_NAME":"STARLINK-4310","OBJECT_ID":"2022-077AH","EPOCH":"2026-03-09T23:24:38.242368","MEAN_MOTION":15.05639905,"ECCENTRICITY":0.00017732,"INCLINATION":97.6021,"RA_OF_ASC_NODE":251.4717,"ARG_OF_PERICENTER":113.1748,"MEAN_ANOMALY":246.9665,"EPHEMERIS_TYPE":0,"CLASSIFICATION_TYPE":"U","NORAD_CAT_ID":53074,"ELEMENT_SET_NO":999,"REV_AT_EPOCH":20102,"BSTAR":7.9434803e-5,"MEAN_MOTION_DOT":1.085e-5,"MEAN_MOTION_DDOT":0},{"OBJECT_NAME":"H-2A R\/B","OBJECT_ID":"2009-002J","EPOCH":"2026-03-09T23:38:52.170720","MEAN_MOTION":15.01829324,"ECCENTRICITY":0.00333022,"INCLINATION":98.2328,"RA_OF_ASC_NODE":87.9691,"ARG_OF_PERICENTER":111.7239,"MEAN_ANOMALY":248.7534,"EPHEMERIS_TYPE":0,"CLASSIFICATION_TYPE":"U","NORAD_CAT_ID":33500,"ELEMENT_SET_NO":999,"REV_AT_EPOCH":92943,"BSTAR":0.00033449169,"MEAN_MOTION_DOT":4.347e-5,"MEAN_MOTION_DDOT":0}]
